H1 CPF  1  DLR 2022 12 17 13  8512 technosat            
H2  1704205 6203    42829 2022 12 17 00 00 00 2022 12 24 00 00 00    60 1 1  0 0 0
H9
10 0 59934  50400.000000  0       -865098.231      -6232204.444      -3023158.055
10 0 59934  50460.000000  0       -981865.633      -6397411.214      -2612462.706
10 0 59934  50520.000000  0      -1095831.417      -6534730.754      -2190711.925
10 0 59934  50580.000000  0      -1206267.116      -6643594.937      -1759684.192
10 0 59934  50640.000000  0      -1312454.139      -6723561.518      -1321199.904
10 0 59934  50700.000000  0      -1413687.991      -6774316.306       -877113.634
10 0 59934  50760.000000  0      -1509282.459      -6795674.724       -429306.183
10 0 59934  50820.000000  0      -1598573.742      -6787582.763         20323.518
10 0 59934  50880.000000  0      -1680924.510      -6750117.323        469866.638
10 0 59934  50940.000000  0      -1755727.857      -6683485.905        917412.774
10 0 59934  51000.000000  0      -1822411.110      -6588025.679       1361058.320
10 0 59934  51060.000000  0      -1880439.474      -6464201.905       1798914.830
10 0 59934  51120.000000  0      -1929319.496      -6312605.725       2229117.352
10 0 59934  51180.000000  0      -1968602.301      -6133951.318       2649832.645
10 0 59934  51240.000000  0      -1997886.609      -5929072.445       3059267.239
10 0 59934  51300.000000  0      -2016821.491      -5698918.442       3455675.305
10 0 59934  51360.000000  0      -2025108.858      -5444549.661       3837366.303
10 0 59934  51420.000000  0      -2022505.654      -5167132.383       4202712.339
10 0 59934  51480.000000  0      -2008825.786      -4867933.283       4550155.208
10 0 59934  51540.000000  0      -1983941.767      -4548313.457       4878213.142
10 0 59934  51600.000000  0      -1947786.056      -4209722.018       5185487.258
10 0 59934  51660.000000  0      -1900352.067      -3853689.214       5470667.613
10 0 59934  51720.000000  0      -1841694.812      -3481819.193       5732538.747
10 0 59934  51780.000000  0      -1771931.210      -3095782.547       5969984.787
10 0 59934  51840.000000  0      -1691240.070      -2697308.597       6181994.110
10 0 59934  51900.000000  0      -1599861.752      -2288177.500       6367663.544
10 0 59934  51960.000000  0      -1498097.527      -1870212.182       6526202.165
10 0 59934  52020.000000  0      -1386308.622      -1445270.037       6656934.634
10 0 59934  52080.000000  0      -1264914.965      -1015234.479       6759303.954
10 0 59934  52140.000000  0      -1134393.624       -582006.482       6832873.700
10 0 59934  52200.000000  0       -995276.953       -147496.141       6877329.790
10 0 59934  52260.000000  0       -848150.396        286385.784       6892481.856
10 0 59934  52320.000000  0       -693650.010        717736.396       6878264.085
10 0 59934  52380.000000  0       -532459.666       1144669.103       6834735.496
10 0 59934  52440.000000  0       -365308.000       1565321.942       6762079.725
10 0 59934  52500.000000  0       -192965.096       1977865.821       6660604.310
10 0 59934  52560.000000  0        -16238.903       2380512.574       6530739.408
10 0 59934  52620.000000  0        164028.549       2771522.771       6373036.059
10 0 59934  52680.000000  0        346965.140       3149213.372       6188163.994
10 0 59934  52740.000000  0        531672.861       3511965.176       5976908.902
10 0 59934  52800.000000  0        717232.214       3858229.941       5740169.180
10 0 59934  52860.000000  0        902706.756       4186537.180       5478952.215
10 0 59934  52920.000000  0       1087147.820       4495500.643       5194370.224
10 0 59934  52980.000000  0       1269599.343       4783824.460       4887635.572
10 0 59934  53040.000000  0       1449102.784       5050308.830       4560055.576
10 0 59934  53100.000000  0       1624702.081       5293855.156       4213026.985
10 0 59934  53160.000000  0       1795448.692       5513470.849       3848030.174
10 0 59934  53220.000000  0       1960406.790       5708273.753       3466622.864
10 0 59934  53280.000000  0       2118658.316       5877496.007       3070433.158
10 0 59934  53340.000000  0       2269307.864       6020487.213       2661152.396
10 0 59934  53400.000000  0       2411487.669       6136717.132       2240527.792
10 0 59934  53460.000000  0       2544362.498       6225777.762       1810354.680
10 0 59934  53520.000000  0       2667134.294       6287384.725       1372468.528
10 0 59934  53580.000000  0       2779046.645       6321378.061        928736.836
10 0 59934  53640.000000  0       2879389.091       6327722.442        481050.911
10 0 59934  53700.000000  0       2967501.214       6306506.781         31317.540
10 0 59934  53760.000000  0       3042776.523       6257943.263       -418549.420
10 0 59934  53820.000000  0       3104666.047       6182365.701       -866637.476
10 0 59934  53880.000000  0       3152681.627       6080227.315      -1311043.843
10 0 59934  53940.000000  0       3186398.898       5952098.005      -1749883.715
10 0 59934  54000.000000  0       3205459.983       5798661.047      -2181298.463
10 0 59934  54060.000000  0       3209575.827       5620709.243      -2603463.654
10 0 59934  54120.000000  0       3198528.182       5419140.557      -3014596.873
10 0 59934  54180.000000  0       3172171.191       5194953.259      -3412965.290
10 0 59934  54240.000000  0       3130432.611       4949240.634      -3796892.880
10 0 59934  54300.000000  0       3073314.690       4683185.375      -4164767.317
10 0 59934  54360.000000  0       3000894.665       4398053.627      -4515046.599
10 0 59934  54420.000000  0       2913324.864       4095188.666      -4846265.285
10 0 59934  54480.000000  0       2810832.480       3776004.341      -5157040.294
10 0 59934  54540.000000  0       2693719.026       3441978.291      -5446076.375
10 0 59934  54600.000000  0       2562359.413       3094644.917      -5712171.145
10 0 59934  54660.000000  0       2417200.675       2735588.221      -5954219.690
10 0 59934  54720.000000  0       2258760.344       2366434.507      -6171218.741
10 0 59934  54780.000000  0       2087624.515       1988844.994      -6362270.367
10 0 59934  54840.000000  0       1904445.647       1604508.424      -6526585.239
10 0 59934  54900.000000  0       1709940.085       1215133.617      -6663485.496
10 0 59934  54960.000000  0       1504885.278        822442.036      -6772407.198
10 0 59934  55020.000000  0       1290116.677        428160.400      -6852902.378
10 0 59934  55080.000000  0       1066524.338         34013.281      -6904640.655
10 0 59934  55140.000000  0        835049.288       -358284.250      -6927410.345
10 0 59934  55200.000000  0        596679.656       -747033.820      -6921119.112
10 0 59934  55260.000000  0        352446.611      -1130560.802      -6885794.240
10 0 59934  55320.000000  0        103420.081      -1507221.240      -6821582.489
10 0 59934  55380.000000  0       -149295.729      -1875408.572      -6728749.602
10 0 59934  55440.000000  0       -404567.077      -2233560.300      -6607679.434
10 0 59934  55500.000000  0       -661235.622      -2580164.499      -6458872.572
10 0 59934  55560.000000  0       -918123.482      -2913766.080      -6282944.440
10 0 59934  55620.000000  0      -1174038.431      -3232972.749      -6080623.043
10 0 59934  55680.000000  0      -1427779.233      -3536460.753      -5852746.338
10 0 59934  55740.000000  0      -1678141.115      -3822980.375      -5600259.171
10 0 59934  55800.000000  0      -1923921.341      -4091361.166      -5324209.815
10 0 59934  55860.000000  0      -2163924.895      -4340516.904      -5025746.040
10 0 59934  55920.000000  0      -2396970.227      -4569450.175      -4706110.716
10 0 59934  55980.000000  0      -2621895.005      -4777256.571      -4366637.002
10 0 59934  56040.000000  0      -2837561.864      -4963128.494      -4008743.125
10 0 59934  56100.000000  0      -3042864.102      -5126358.547      -3633926.788
10 0 59934  56160.000000  0      -3236731.339      -5266342.530      -3243759.207
10 0 59934  56220.000000  0      -3418135.100      -5382581.982      -2839878.763
10 0 59934  56280.000000  0      -3586094.279      -5474686.241      -2423984.308
10 0 59934  56340.000000  0      -3739680.451      -5542374.034      -1997828.140
10 0 59934  56400.000000  0      -3878022.997      -5585474.546      -1563208.663
10 0 59934  56460.000000  0      -4000313.987      -5603927.975      -1121962.786
10 0 59934  56520.000000  0      -4105812.806      -5597785.562       -675958.073
10 0 59934  56580.000000  0      -4193850.478      -5567209.063       -227084.719
10 0 59934  56640.000000  0      -4263833.686      -5512469.712        222752.620
10 0 59934  56700.000000  0      -4315248.452      -5433946.636        671643.128
10 0 59934  56760.000000  0      -4347663.444      -5332124.736       1117678.211
10 0 59934  56820.000000  0      -4360732.867      -5207592.010       1558959.898
10 0 59934  56880.000000  0      -4354198.923      -5061036.364       1993609.181
10 0 59934  56940.000000  0      -4327893.842      -4893241.964       2419774.264
10 0 59934  57000.000000  0      -4281741.484      -4705085.119       2835638.696
10 0 59934  57060.000000  0      -4215758.494      -4497529.740       3239429.350
10 0 59934  57120.000000  0      -4130054.989      -4271622.389       3629424.209
10 0 59934  57180.000000  0      -4024834.771      -4028486.936       4003959.930
10 0 59934  57240.000000  0      -3900395.040      -3769318.831       4361439.127
10 0 59934  57300.000000  0      -3757125.646      -3495379.052       4700337.263
10 0 59934  57360.000000  0      -3595507.908      -3207987.827       5019209.179
10 0 59934  57420.000000  0      -3416112.996      -2908518.142       5316695.294
10 0 59934  57480.000000  0      -3219599.848      -2598389.047       5591527.397
10 0 59934  57540.000000  0      -3006712.678      -2279058.840       5842534.040
99
